

*******************************************************************************
Ephemeris / WWW_USER Thu May  4 19:52:01 2023 Pasadena, USA      / Horizons
*******************************************************************************
Target body name: Earth (399)                     {source: DE441}
Center body name: Sun (10)                        {source: DE441}
Center-site name: BODY CENTER
*******************************************************************************
Start time      : A.D. 1963-Jan-01 00:00:00.0000 TDB
Stop  time      : A.D. 2023-Jan-01 00:00:00.0000 TDB
Step-size       : 4320 minutes
*******************************************************************************
Center geodetic : 0.0, 0.0, 0.0                   {E-lon(deg),Lat(deg),Alt(km)}
Center cylindric: 0.0, 0.0, 0.0                   {E-lon(deg),Dxy(km),Dz(km)}
Center radii    : 696000.0, 696000.0, 696000.0 km {Equator_a, b, pole_c}
Output units    : KM-S
Calendar mode   : Mixed Julian/Gregorian
Output type     : GEOMETRIC cartesian states
Output format   : 1 (position only)
Reference frame : Ecliptic of J2000.0
*******************************************************************************
            JDTDB,            Calendar Date (TDB),                      X,                      Y,                      Z,
**************************************************************************************************************************
$$SOE
2451899.500000000, A.D. 2000-Dec-21 00:00:00.0000,  1.495137945025760E+06,  1.471595894246648E+08, -7.828620973154902E+02,
2451902.500000000, A.D. 2000-Dec-24 00:00:00.0000, -6.352467925828976E+06,  1.470051654180658E+08, -6.091729900538921E+02,
2451905.500000000, A.D. 2000-Dec-27 00:00:00.0000, -1.418287663137543E+07,  1.464374992727227E+08, -3.348217090442777E+02,
2451908.500000000, A.D. 2000-Dec-30 00:00:00.0000, -2.197293633862630E+07,  1.454580878684190E+08, -7.164559499919415E+01,
2451911.500000000, A.D. 2001-Jan-02 00:00:00.0000, -2.969987319824899E+07,  1.440702746926717E+08,  7.692564619332552E+01,
2451914.500000000, A.D. 2001-Jan-05 00:00:00.0000, -3.734160994812307E+07,  1.422790431534534E+08,  4.330899402499199E+01,
2451917.500000000, A.D. 2001-Jan-08 00:00:00.0000, -4.487709755806542E+07,  1.400907571796731E+08, -1.744386078938842E+02,
2451920.500000000, A.D. 2001-Jan-11 00:00:00.0000, -5.228660464639544E+07,  1.375125240771064E+08, -4.774636114016175E+02,
2451923.500000000, A.D. 2001-Jan-14 00:00:00.0000, -5.955118761547802E+07,  1.345512646301779E+08, -6.972042828500271E+02,
2451926.500000000, A.D. 2001-Jan-17 00:00:00.0000, -6.665140503222889E+07,  1.312138755463803E+08, -7.211629369407892E+02,
2451929.500000000, A.D. 2001-Jan-20 00:00:00.0000, -7.356703971080890E+07,  1.275084311488169E+08, -5.540306374803185E+02,
2451932.500000000, A.D. 2001-Jan-23 00:00:00.0000, -8.027778794470283E+07,  1.234448060236438E+08, -2.776264621987939E+02,
2451935.500000000, A.D. 2001-Jan-26 00:00:00.0000, -8.676386600004375E+07,  1.190346712545768E+08, -2.479006305336952E+00,
2451938.500000000, A.D. 2001-Jan-29 00:00:00.0000, -9.300642113145202E+07,  1.142913323959971E+08,  1.671193078532815E+02,
2451941.500000000, A.D. 2001-Feb-01 00:00:00.0000, -9.898785815816046E+07,  1.092294876418138E+08,  1.624159069955349E+02,
2451944.500000000, A.D. 2001-Feb-04 00:00:00.0000, -1.046921104115467E+08,  1.038649008847616E+08, -2.358314500749111E+01,
2451947.500000000, A.D. 2001-Feb-07 00:00:00.0000, -1.101048538520721E+08,  9.821386535961531E+07, -3.102126628383994E+02,
2451950.500000000, A.D. 2001-Feb-10 00:00:00.0000, -1.152132284066359E+08,  9.229234402305852E+07, -5.393251147791743E+02,
2451953.500000000, A.D. 2001-Feb-13 00:00:00.0000, -1.200046413959624E+08,  8.611570643247546E+07, -5.803569163680077E+02,
2451956.500000000, A.D. 2001-Feb-16 00:00:00.0000, -1.244660511977725E+08,  7.969983349651551E+07, -4.242503109984100E+02,
2451959.500000000, A.D. 2001-Feb-19 00:00:00.0000, -1.285846008013885E+08,  7.306201921596445E+07, -1.523890540115535E+02,
2451962.500000000, A.D. 2001-Feb-22 00:00:00.0000, -1.323483483724916E+08,  6.622095227031291E+07,  1.251956466212869E+02,
2451965.500000000, A.D. 2001-Feb-25 00:00:00.0000, -1.357466361831942E+08,  5.919647601622874E+07,  3.050960101038218E+02,
2451968.500000000, A.D. 2001-Feb-28 00:00:00.0000, -1.387703725176965E+08,  5.200934896591988E+07,  3.179778623171151E+02,
2451971.500000000, A.D. 2001-Mar-03 00:00:00.0000, -1.414122854637047E+08,  4.468088354382100E+07,  1.559152179565281E+02,
2451974.500000000, A.D. 2001-Mar-06 00:00:00.0000, -1.436670390336480E+08,  3.723240555363458E+07, -1.089419570695609E+02,
2451977.500000000, A.D. 2001-Mar-09 00:00:00.0000, -1.455309860885238E+08,  2.968454033925125E+07, -3.342125405929983E+02,
2451980.500000000, A.D. 2001-Mar-12 00:00:00.0000, -1.470012135200777E+08,  2.205679937497418E+07, -3.848838222445920E+02,
2451983.500000000, A.D. 2001-Mar-15 00:00:00.0000, -1.480745787468550E+08,  1.436834829046775E+07, -2.348218632843345E+02,
2451986.500000000, A.D. 2001-Mar-18 00:00:00.0000, -1.487480296619603E+08,  6.639128442873483E+06,  3.759430286940187E+01,
2451989.500000000, A.D. 2001-Mar-21 00:00:00.0000, -1.490194521881877E+08, -1.109981393939379E+06,  3.201171173761250E+02,
2451992.500000000, A.D. 2001-Mar-24 00:00:00.0000, -1.488880861819940E+08, -8.857474210642116E+06,  5.096684358869679E+02,
2451995.500000000, A.D. 2001-Mar-27 00:00:00.0000, -1.483547360754285E+08, -1.658146368506453E+07,  5.363827926600352E+02,
2451998.500000000, A.D. 2001-Mar-30 00:00:00.0000, -1.474220126823574E+08, -2.426000922733489E+07,  3.913343279883265E+02,
2452001.500000000, A.D. 2001-Apr-02 00:00:00.0000, -1.460944312936248E+08, -3.187168469721927E+07,  1.454601726364344E+02,
2452004.500000000, A.D. 2001-Apr-05 00:00:00.0000, -1.443780914232417E+08, -3.939624231197725E+07, -6.701867771334946E+01,
2452007.500000000, A.D. 2001-Apr-08 00:00:00.0000, -1.422798408458354E+08, -4.681496043673072E+07, -1.158124159425497E+02,
2452010.500000000, A.D. 2001-Apr-11 00:00:00.0000, -1.398063477697032E+08, -5.411012392512531E+07,  3.647322774305940E+01,
2452013.500000000, A.D. 2001-Apr-14 00:00:00.0000, -1.369640940829300E+08, -6.126393435831878E+07,  3.176799972504377E+02,
2452016.500000000, A.D. 2001-Apr-17 00:00:00.0000, -1.337601747039739E+08, -6.825808241888943E+07,  6.114698826968670E+02,
2452019.500000000, A.D. 2001-Apr-20 00:00:00.0000, -1.302028382295882E+08, -7.507402293836392E+07,  8.119293829761446E+02,
2452022.500000000, A.D. 2001-Apr-23 00:00:00.0000, -1.263016698171176E+08, -8.169326573001695E+07,  8.474909510537982E+02,
2452025.500000000, A.D. 2001-Apr-26 00:00:00.0000, -1.220677917276187E+08, -8.809763684878588E+07,  7.057709181383252E+02,
2452028.500000000, A.D. 2001-Apr-29 00:00:00.0000, -1.175140155919995E+08, -9.426981686766461E+07,  4.574086080491543E+02,
2452031.500000000, A.D. 2001-May-02 00:00:00.0000, -1.126545034416933E+08, -1.001940584229880E+08,  2.381655519083142E+02,
2452034.500000000, A.D. 2001-May-05 00:00:00.0000, -1.075038870846579E+08, -1.058564779131237E+08,  1.767648093625903E+02,
2452037.500000000, A.D. 2001-May-08 00:00:00.0000, -1.020764267378930E+08, -1.112445626295256E+08,  3.158860004916787E+02,
2452040.500000000, A.D. 2001-May-11 00:00:00.0000, -9.638588572240943E+07, -1.163462155679971E+08,  5.915139852166176E+02,
2452043.500000000, A.D. 2001-May-14 00:00:00.0000, -9.044616448460789E+07, -1.211491864697627E+08,  8.856393263638020E+02,
2452046.500000000, A.D. 2001-May-17 00:00:00.0000, -8.427192425139605E+07, -1.256412096120098E+08,  1.087504228703678E+03,
2452049.500000000, A.D. 2001-May-20 00:00:00.0000, -7.787881894583045E+07, -1.298103257513066E+08,  1.122536291636527E+03,
2452052.500000000, A.D. 2001-May-23 00:00:00.0000, -7.128364072181571E+07, -1.336451151067735E+08,  9.726047748029232E+02,
2452055.500000000, A.D. 2001-May-26 00:00:00.0000, -6.450451908992574E+07, -1.371351316697280E+08,  7.031084756106138E+02,
2452058.500000000, A.D. 2001-May-29 00:00:00.0000, -5.756069145965914E+07, -1.402716774196889E+08,  4.545526764392853E+02,
2452061.500000000, A.D. 2001-Jun-01 00:00:00.0000, -5.047153784255444E+07, -1.430481827194627E+08,  3.625326082780957E+02,
2452064.500000000, A.D. 2001-Jun-04 00:00:00.0000, -4.325569062080511E+07, -1.454596359337724E+08,  4.737857132628560E+02,
2452067.500000000, A.D. 2001-Jun-07 00:00:00.0000, -3.593094010677017E+07, -1.475016566398351E+08,  7.308064023330808E+02,
2452070.500000000, A.D. 2001-Jun-10 00:00:00.0000, -2.851476223536356E+07, -1.491699314480126E+08,  1.017478551723063E+03,
2452073.500000000, A.D. 2001-Jun-13 00:00:00.0000, -2.102492604893611E+07, -1.504602267237099E+08,  1.218632732659578E+03,
2452076.500000000, A.D. 2001-Jun-16 00:00:00.0000, -1.347980032957524E+07, -1.513686868280284E+08,  1.255436986640096E+03,
2452079.500000000, A.D. 2001-Jun-19 00:00:00.0000, -5.898474613410746E+06, -1.518920839538598E+08,  1.103374043852091E+03,
2452082.500000000, A.D. 2001-Jun-22 00:00:00.0000,  1.699059937971721E+06, -1.520281416417888E+08,  8.163630128502846E+02,
2452085.500000000, A.D. 2001-Jun-25 00:00:00.0000,  9.291966090495683E+06, -1.517762570959182E+08,  5.330384819507599E+02,
2452088.500000000, A.D. 2001-Jun-28 00:00:00.0000,  1.685948230804873E+07, -1.511380880659017E+08,  4.017541927844286E+02,
2452091.500000000, A.D. 2001-Jul-01 00:00:00.0000,  2.438201672119317E+07, -1.501169946623617E+08,  4.778705933392048E+02,
2452094.500000000, A.D. 2001-Jul-04 00:00:00.0000,  3.184124092791785E+07, -1.487169775256305E+08,  7.079749537557364E+02,
2452097.500000000, A.D. 2001-Jul-07 00:00:00.0000,  3.921953273161533E+07, -1.469421305962387E+08,  9.794745479747653E+02,
2452100.500000000, A.D. 2001-Jul-10 00:00:00.0000,  4.649941516946837E+07, -1.447966206743214E+08,  1.176027369938791E+03,
2452103.500000000, A.D. 2001-Jul-13 00:00:00.0000,  5.366321628492752E+07, -1.422849292143665E+08,  1.215283201240003E+03,
